{"fetched_at":"2026-03-29T02:12:04Z","count":15717,"tles":[{"name":"BEIDOU-3 IGSO-1 (C38)","line1":"1 44204U 19023A   26085.65707529 -.00000212  00000+0  00000+0 0  9995","line2":"2 44204  58.5860  38.4984 0025183 236.7446 263.8673  1.00263805  6382","category":"GPS"}]}