{
  "norad_id": 44204,
  "name": "BEIDOU-3 IGSO-1",
  "history": [
    {
      "epoch": "2026-03-26T15:46:11.305056Z",
      "apogee_km": 35895.022115105196,
      "perigee_km": 35682.64227138772,
      "latitude_deg": 32.968502583383305,
      "longitude_deg": 134.50912092171052,
      "height_km": 35802.497050222606,
      "semi_major_axis_km": 42166.969193246456,
      "eccentricity": 0.00251832,
      "inclination_deg": 58.586,
      "raan_deg": 38.4984,
      "arg_perigee_deg": 236.7446,
      "mean_anomaly_deg": 263.8673,
      "mean_motion_rev_day": 1.00263805
    }
  ]
}